{
  "type": "FeatureCollection",
  "features": [
    {
      "type": "Feature",
      "properties": {
        "norad_id": 38091,
        "name": "BEIDOU-2 G5 (C05)",
        "group": "gnss",
        "lat": 0.062317822817036204,
        "lon": 71.37395246673236,
        "alt_km": 35821.768635862216,
        "timestamp": "2025-12-20T18:51:31.957030+00:00",
        "meta_object_name": "BEIDOU-2 G5 (C05)",
        "meta_object_id": "2012-008A",
        "meta_epoch": "2025-12-19T16:03:31.750272",
        "meta_mean_motion": 1.00268606,
        "meta_eccentricity": 0.0012969,
        "meta_inclination": 3.1258,
        "meta_ra_of_asc_node": 70.6861,
        "meta_arg_of_pericenter": 231.3522,
        "meta_mean_anomaly": 86.1393,
        "meta_ephemeris_type": 0,
        "meta_classification_type": "U",
        "meta_norad_cat_id": 38091,
        "meta_element_set_no": 999,
        "meta_rev_at_epoch": 5056,
        "meta_bstar": 0,
        "meta_mean_motion_dot": 7.9e-07,
        "meta_mean_motion_ddot": 0,
        "tle_line1": "1 38091U 12008A   25353.66911748  .00000079  00000+0  00000+0 0  9996",
        "tle_line2": "2 38091   3.1258  70.6861 0012969 231.3522  86.1393  1.00268606 50560"
      },
      "geometry": {
        "type": "Point",
        "coordinates": [
          71.37395246673236,
          0.062317822817036204
        ]
      }
    },
    {
      "type": "Feature",
      "properties": {
        "norad_id": 38250,
        "name": "BEIDOU-2 M3 (C11)",
        "group": "gnss",
        "lat": -55.913447245191826,
        "lon": -137.86608326262575,
        "alt_km": 21466.71731036443,
        "timestamp": "2025-12-20T18:51:31.957042+00:00",
        "meta_object_name": "BEIDOU-2 M3 (C11)",
        "meta_object_id": "2012-018A",
        "meta_epoch": "2025-12-19T07:23:03.381792",
        "meta_mean_motion": 1.86230015,
        "meta_eccentricity": 0.0024195,
        "meta_inclination": 55.9145,
        "meta_ra_of_asc_node": 310.9364,
        "meta_arg_of_pericenter": 274.9131,
        "meta_mean_anomaly": 84.7979,
        "meta_ephemeris_type": 0,
        "meta_classification_type": "U",
        "meta_norad_cat_id": 38250,
        "meta_element_set_no": 999,
        "meta_rev_at_epoch": 9259,
        "meta_bstar": 0,
        "meta_mean_motion_dot": -7.8e-07,
        "meta_mean_motion_ddot": 0,
        "tle_line1": "1 38250U 12018A   25353.30767803 -.00000078  00000+0  00000+0 0  9996",
        "tle_line2": "2 38250  55.9145 310.9364 0024195 274.9131  84.7979  1.86230015 92598"
      },
      "geometry": {
        "type": "Point",
        "coordinates": [
          -137.86608326262575,
          -55.913447245191826
        ]
      }
    },
    {
      "type": "Feature",
      "properties": {
        "norad_id": 38251,
        "name": "BEIDOU-2 M4 (C12)",
        "group": "gnss",
        "lat": -34.734341661929136,
        "lon": -77.99457877937124,
        "alt_km": 21498.513119789062,
        "timestamp": "2025-12-20T18:51:31.957053+00:00",
        "meta_object_name": "BEIDOU-2 M4 (C12)",
        "meta_object_id": "2012-018B",
        "meta_epoch": "2025-12-19T05:45:13.599936",
        "meta_mean_motion": 1.86229684,
        "meta_eccentricity": 0.00153935,
        "meta_inclination": 55.8157,
        "meta_ra_of_asc_node": 310.167,
        "meta_arg_of_pericenter": 278.4783,
        "meta_mean_anomaly": 81.3347,
        "meta_ephemeris_type": 0,
        "meta_classification_type": "U",
        "meta_norad_cat_id": 38251,
        "meta_element_set_no": 999,
        "meta_rev_at_epoch": 9259,
        "meta_bstar": 0,
        "meta_mean_motion_dot": -7.8e-07,
        "meta_mean_motion_ddot": 0,
        "tle_line1": "1 38251U 12018B   25353.23974074 -.00000078  00000+0  00000+0 0  9999",
        "tle_line2": "2 38251  55.8157 310.1670 0015393 278.4783  81.3347  1.86229684 92597"
      },
      "geometry": {
        "type": "Point",
        "coordinates": [
          -77.99457877937124,
          -34.734341661929136
        ]
      }
    },
    {
      "type": "Feature",
      "properties": {
        "norad_id": 38652,
        "name": "SES-5 (EGNOS/PRN 136)",
        "group": "gnss",
        "lat": 0.06323158279585253,
        "lon": 17.49513824799338,
        "alt_km": 35787.567648313925,
        "timestamp": "2025-12-20T18:51:31.957065+00:00",
        "meta_object_name": "SES-5 (EGNOS/PRN 136)",
        "meta_object_id": "2012-036A",
        "meta_epoch": "2025-12-20T06:24:25.320672",
        "meta_mean_motion": 1.00274447,
        "meta_eccentricity": 0.00019852,
        "meta_inclination": 0.058,
        "meta_ra_of_asc_node": 305.1358,
        "meta_arg_of_pericenter": 326.7029,
        "meta_mean_anomaly": 278.3497,
        "meta_ephemeris_type": 0,
        "meta_classification_type": "U",
        "meta_norad_cat_id": 38652,
        "meta_element_set_no": 999,
        "meta_rev_at_epoch": 4266,
        "meta_bstar": 0,
        "meta_mean_motion_dot": 5.8e-07,
        "meta_mean_motion_ddot": 0,
        "tle_line1": "1 38652U 12036A   25354.26695973  .00000058  00000+0  00000+0 0  9993",
        "tle_line2": "2 38652   0.0580 305.1358 0001985 326.7029 278.3497  1.00274447 42663"
      },
      "geometry": {
        "type": "Point",
        "coordinates": [
          17.49513824799338,
          0.06323158279585253
        ]
      }
    },
    {
      "type": "Feature",
      "properties": {
        "norad_id": 38775,
        "name": "BEIDOU-2 M6 (C14)",
        "group": "gnss",
        "lat": 24.284248434789856,
        "lon": -128.61963389938185,
        "alt_km": 21555.919491175613,
        "timestamp": "2025-12-20T18:51:31.957079+00:00",
        "meta_object_name": "BEIDOU-2 M6 (C14)",
        "meta_object_id": "2012-050B",
        "meta_epoch": "2025-12-19T11:42:06.639840",
        "meta_mean_motion": 1.86230927,
        "meta_eccentricity": 0.0011333,
        "meta_inclination": 56.384,
        "meta_ra_of_asc_node": 68.8435,
        "meta_arg_of_pericenter": 343.6526,
        "meta_mean_anomaly": 16.3469,
        "meta_ephemeris_type": 0,
        "meta_classification_type": "U",
        "meta_norad_cat_id": 38775,
        "meta_element_set_no": 999,
        "meta_rev_at_epoch": 8996,
        "meta_bstar": 0,
        "meta_mean_motion_dot": -5.2e-07,
        "meta_mean_motion_ddot": 0,
        "tle_line1": "1 38775U 12050B   25353.48757685 -.00000052  00000+0  00000+0 0  9992",
        "tle_line2": "2 38775  56.3840  68.8435 0011333 343.6526  16.3469  1.86230927 89961"
      },
      "geometry": {
        "type": "Point",
        "coordinates": [
          -128.61963389938185,
          24.284248434789856
        ]
      }
    },
    {
      "type": "Feature",
      "properties": {
        "norad_id": 38779,
        "name": "GSAT-10 (GAGAN/PRN 128)",
        "group": "gnss",
        "lat": 0.013106501870837953,
        "lon": 95.5057439176954,
        "alt_km": 35776.92156616114,
        "timestamp": "2025-12-20T18:51:31.957092+00:00",
        "meta_object_name": "GSAT-10 (GAGAN/PRN 128)",
        "meta_object_id": "2012-051B",
        "meta_epoch": "2025-12-20T13:37:28.842816",
        "meta_mean_motion": 1.0027221,
        "meta_eccentricity": 0.00024185,
        "meta_inclination": 0.0729,
        "meta_ra_of_asc_node": 264.6066,
        "meta_arg_of_pericenter": 218.7749,
        "meta_mean_anomaly": 253.4182,
        "meta_ephemeris_type": 0,
        "meta_classification_type": "U",
        "meta_norad_cat_id": 38779,
        "meta_element_set_no": 999,
        "meta_rev_at_epoch": 4830,
        "meta_bstar": 0,
        "meta_mean_motion_dot": -1.42e-06,
        "meta_mean_motion_ddot": 0,
        "tle_line1": "1 38779U 12051B   25354.56769494 -.00000142  00000+0  00000+0 0  9998",
        "tle_line2": "2 38779   0.0729 264.6066 0002418 218.7749 253.4182  1.00272210 48302"
      },
      "geometry": {
        "type": "Point",
        "coordinates": [
          95.5057439176954,
          0.013106501870837953
        ]
      }
    },
    {
      "type": "Feature",
      "properties": {
        "norad_id": 38833,
        "name": "GPS BIIF-3  (PRN 24)",
        "group": "gnss",
        "lat": -24.391713422527612,
        "lon": 131.31834930750884,
        "alt_km": 20217.9814676966,
        "timestamp": "2025-12-20T18:51:31.957103+00:00",
        "meta_object_name": "GPS BIIF-3  (PRN 24)",
        "meta_object_id": "2012-053A",
        "meta_epoch": "2025-12-19T19:56:51.793728",
        "meta_mean_motion": 2.0056508,
        "meta_eccentricity": 0.01760073,
        "meta_inclination": 53.5591,
        "meta_ra_of_asc_node": 150.9483,
        "meta_arg_of_pericenter": 64.0988,
        "meta_mean_anomaly": 297.6852,
        "meta_ephemeris_type": 0,
        "meta_classification_type": "U",
        "meta_norad_cat_id": 38833,
        "meta_element_set_no": 999,
        "meta_rev_at_epoch": 9584,
        "meta_bstar": 0,
        "meta_mean_motion_dot": 5.6e-07,
        "meta_mean_motion_ddot": 0,
        "tle_line1": "1 38833U 12053A   25353.83115502  .00000056  00000+0  00000+0 0  9998",
        "tle_line2": "2 38833  53.5591 150.9483 0176007  64.0988 297.6852  2.00565080 95842"
      },
      "geometry": {
        "type": "Point",
        "coordinates": [
          131.31834930750884,
          -24.391713422527612
        ]
      }
    }
  ]
}